STARLINK-36428          
1 67362U 26003AE  26017.91670139 -.01693105  80326-3 -46155-2 0  9999
2 67362  42.9981 161.3196 0001682 275.0879  64.7244 15.93316097  2510
SHIJIAN-29B (SJ-29B)    
1 67403U 25315C   26017.95503185 -.00000054  00000+0  00000+0 0  9996
2 67403   3.0168  99.0860 0000899 325.2915 109.8959  1.00271739   185
YAOGAN-50 01            
1 67433U 26006A   26016.17880840  .00000537  00000+0  12658-3 0  9997
2 67433 141.9984 200.7842 0164962 123.7171 237.9391 14.21837795   375
CZ-6A R/B               
1 67434U 26006B   26013.71733058  .00000541  00000+0  30805-4 0  9993
2 67434 142.0438 188.1412 0201725  82.0696 280.2897 14.62247694    24
HULIANWANG DIGUI 18A    
1 67435U 26007A   26017.92315896  .00000066  00000+0  16504-3 0  9999
2 67435  50.0087 277.3831 0008387 284.5010  75.4958 13.92120996   600
HULIANWANG DIGUI 18B    
1 67436U 26007B   26017.99528952 -.00000020  00000+0  98513-4 0  9998
2 67436  50.0066 277.0956 0007506 272.7275  87.2765 13.92013594   610
HULIANWANG DIGUI 18C    
1 67437U 26007C   26017.99515030 -.00000036  00000+0  86113-4 0  9992
2 67437  50.0026 277.0920 0008172 279.9823  80.0154 13.92053589   617
HULIANWANG DIGUI 18D    
1 67438U 26007D   26017.92384134 -.00000011  00000+0  10571-3 0  9992
2 67438  50.0060 277.3839 0008963 278.3882  81.6001 13.91901119   601
HULIANWANG DIGUI 18E    
1 67439U 26007E   26017.99479593  .00000009  00000+0  12084-3 0  9991
2 67439  50.0055 277.0917 0006758 277.5537  82.4595 13.92169835   618
HULIANWANG DIGUI 18F    
1 67440U 26007F   26017.92261628 -.00000110  00000+0  28558-4 0  9992
2 67440  50.0118 277.3859 0007631 286.6280  73.3782 13.92298554   602
HULIANWANG DIGUI 18G    
1 67441U 26007G   26017.99430378 -.00000109  00000+0  29299-4 0  9991
2 67441  50.0099 277.0959 0006374 282.6088  77.4099 13.92327640   610
HULIANWANG DIGUI 18H    
1 67442U 26007H   26018.06589181 -.00000223  00000+0 -58593-4 0  9995
2 67442  50.0112 276.8070 0007518 293.4187  66.5922 13.92385533   629
